{
  "type": "FeatureCollection",
  "features": [
    {
      "type": "Feature",
      "properties": {
        "norad_id": 34750,
        "name": "COSMOS 2251 DEB",
        "group": "cosmos-2251-debris",
        "lat": -30.811871261982585,
        "lon": -167.23518020260903,
        "alt_km": 721.8139427941696,
        "timestamp": "2025-12-12T07:43:20.910847+00:00",
        "meta_object_name": "COSMOS 2251 DEB",
        "meta_object_id": "1993-036ZU",
        "meta_epoch": "2025-12-11T19:18:21.474144",
        "meta_mean_motion": 14.61306354,
        "meta_eccentricity": 0.00388817,
        "meta_inclination": 74.1083,
        "meta_ra_of_asc_node": 203.5318,
        "meta_arg_of_pericenter": 156.9371,
        "meta_mean_anomaly": 330.3942,
        "meta_ephemeris_type": 0,
        "meta_classification_type": "U",
        "meta_norad_cat_id": 34750,
        "meta_element_set_no": 999,
        "meta_rev_at_epoch": 88217,
        "meta_bstar": 0.0015476938,
        "meta_mean_motion_dot": 7.704e-05,
        "meta_mean_motion_ddot": 0,
        "tle_line1": "1 34750U 93036ZU  25345.80441521  .00007704  00000+0  15477-2 0  9997",
        "tle_line2": "2 34750  74.1083 203.5318 0038881 156.9371 330.3942 14.61306354882179"
      },
      "geometry": {
        "type": "Point",
        "coordinates": [
          -167.23518020260903,
          -30.811871261982585
        ]
      }
    },
    {
      "type": "Feature",
      "properties": {
        "norad_id": 34752,
        "name": "COSMOS 2251 DEB",
        "group": "cosmos-2251-debris",
        "lat": 47.582437365875535,
        "lon": 19.742811519929855,
        "alt_km": 556.5616877211078,
        "timestamp": "2025-12-12T07:43:20.910857+00:00",
        "meta_object_name": "COSMOS 2251 DEB",
        "meta_object_id": "1993-036ZW",
        "meta_epoch": "2025-12-11T10:41:19.624128",
        "meta_mean_motion": 14.99882801,
        "meta_eccentricity": 0.00479,
        "meta_inclination": 74.0135,
        "meta_ra_of_asc_node": 3.2389,
        "meta_arg_of_pericenter": 132.0922,
        "meta_mean_anomaly": 228.4354,
        "meta_ephemeris_type": 0,
        "meta_classification_type": "U",
        "meta_norad_cat_id": 34752,
        "meta_element_set_no": 999,
        "meta_rev_at_epoch": 89830,
        "meta_bstar": 0.0016697464,
        "meta_mean_motion_dot": 0.00021236,
        "meta_mean_motion_ddot": 0,
        "tle_line1": "1 34752U 93036ZW  25345.44536602  .00021236  00000+0  16697-2 0  9995",
        "tle_line2": "2 34752  74.0135   3.2389 0047900 132.0922 228.4354 14.99882801898303"
      },
      "geometry": {
        "type": "Point",
        "coordinates": [
          19.742811519929855,
          47.582437365875535
        ]
      }
    },
    {
      "type": "Feature",
      "properties": {
        "norad_id": 34754,
        "name": "COSMOS 2251 DEB",
        "group": "cosmos-2251-debris",
        "lat": 61.220274625315916,
        "lon": 16.954882671152923,
        "alt_km": 764.0222885090307,
        "timestamp": "2025-12-12T07:43:20.910868+00:00",
        "meta_object_name": "COSMOS 2251 DEB",
        "meta_object_id": "1993-036ZY",
        "meta_epoch": "2025-12-11T20:04:50.181888",
        "meta_mean_motion": 14.40479713,
        "meta_eccentricity": 0.00295299,
        "meta_inclination": 74.0303,
        "meta_ra_of_asc_node": 229.2728,
        "meta_arg_of_pericenter": 345.5442,
        "meta_mean_anomaly": 133.9429,
        "meta_ephemeris_type": 0,
        "meta_classification_type": "U",
        "meta_norad_cat_id": 34754,
        "meta_element_set_no": 999,
        "meta_rev_at_epoch": 88120,
        "meta_bstar": 0.00032271204,
        "meta_mean_motion_dot": 1.005e-05,
        "meta_mean_motion_ddot": 0,
        "tle_line1": "1 34754U 93036ZY  25345.83669192  .00001005  00000+0  32271-3 0  9990",
        "tle_line2": "2 34754  74.0303 229.2728 0029529 345.5442 133.9429 14.40479713881208"
      },
      "geometry": {
        "type": "Point",
        "coordinates": [
          16.954882671152923,
          61.220274625315916
        ]
      }
    },
    {
      "type": "Feature",
      "properties": {
        "norad_id": 34755,
        "name": "COSMOS 2251 DEB",
        "group": "cosmos-2251-debris",
        "lat": 0.8468352359667806,
        "lon": -69.0585098695824,
        "alt_km": 871.562947323665,
        "timestamp": "2025-12-12T07:43:20.910879+00:00",
        "meta_object_name": "COSMOS 2251 DEB",
        "meta_object_id": "1993-036ZZ",
        "meta_epoch": "2025-12-11T14:55:03.161568",
        "meta_mean_motion": 13.50554631,
        "meta_eccentricity": 0.04083101,
        "meta_inclination": 73.9258,
        "meta_ra_of_asc_node": 291.8222,
        "meta_arg_of_pericenter": 311.8419,
        "meta_mean_anomaly": 242.47,
        "meta_ephemeris_type": 0,
        "meta_classification_type": "U",
        "meta_norad_cat_id": 34755,
        "meta_element_set_no": 999,
        "meta_rev_at_epoch": 82508,
        "meta_bstar": 0.0023536952,
        "meta_mean_motion_dot": 2.517e-05,
        "meta_mean_motion_ddot": 0,
        "tle_line1": "1 34755U 93036ZZ  25345.62156437  .00002517  00000+0  23537-2 0  9994",
        "tle_line2": "2 34755  73.9258 291.8222 0408310 311.8419 242.4700 13.50554631825084"
      },
      "geometry": {
        "type": "Point",
        "coordinates": [
          -69.0585098695824,
          0.8468352359667806
        ]
      }
    },
    {
      "type": "Feature",
      "properties": {
        "norad_id": 34756,
        "name": "COSMOS 2251 DEB",
        "group": "cosmos-2251-debris",
        "lat": -51.631870964837155,
        "lon": -53.697991677667204,
        "alt_km": 1079.7794808777371,
        "timestamp": "2025-12-12T07:43:20.910890+00:00",
        "meta_object_name": "COSMOS 2251 DEB",
        "meta_object_id": "1993-036AAA",
        "meta_epoch": "2025-12-11T14:45:00.607104",
        "meta_mean_motion": 13.67238778,
        "meta_eccentricity": 0.03449804,
        "meta_inclination": 74.0026,
        "meta_ra_of_asc_node": 106.2197,
        "meta_arg_of_pericenter": 342.2771,
        "meta_mean_anomaly": 16.6544,
        "meta_ephemeris_type": 0,
        "meta_classification_type": "U",
        "meta_norad_cat_id": 34756,
        "meta_element_set_no": 999,
        "meta_rev_at_epoch": 83406,
        "meta_bstar": 0.0012772103,
        "meta_mean_motion_dot": 1.595e-05,
        "meta_mean_motion_ddot": 0,
        "tle_line1": "1 34756U 93036AAA 25345.61459036  .00001595  00000+0  12772-2 0  9999",
        "tle_line2": "2 34756  74.0026 106.2197 0344980 342.2771  16.6544 13.67238778834065"
      },
      "geometry": {
        "type": "Point",
        "coordinates": [
          -53.697991677667204,
          -51.631870964837155
        ]
      }
    },
    {
      "type": "Feature",
      "properties": {
        "norad_id": 34758,
        "name": "COSMOS 2251 DEB",
        "group": "cosmos-2251-debris",
        "lat": 0.752477238772113,
        "lon": -59.61552659307539,
        "alt_km": 908.7713978330066,
        "timestamp": "2025-12-12T07:43:20.910900+00:00",
        "meta_object_name": "COSMOS 2251 DEB",
        "meta_object_id": "1993-036AAC",
        "meta_epoch": "2025-12-11T06:58:07.203360",
        "meta_mean_motion": 13.580618,
        "meta_eccentricity": 0.03811247,
        "meta_inclination": 74.1076,
        "meta_ra_of_asc_node": 301.8294,
        "meta_arg_of_pericenter": 65.8978,
        "meta_mean_anomaly": 298.1504,
        "meta_ephemeris_type": 0,
        "meta_classification_type": "U",
        "meta_norad_cat_id": 34758,
        "meta_element_set_no": 999,
        "meta_rev_at_epoch": 82890,
        "meta_bstar": 0.0018686561,
        "meta_mean_motion_dot": 2.154e-05,
        "meta_mean_motion_ddot": 0,
        "tle_line1": "1 34758U 93036AAC 25345.29036115  .00002154  00000+0  18687-2 0  9997",
        "tle_line2": "2 34758  74.1076 301.8294 0381124  65.8978 298.1504 13.58061800828901"
      },
      "geometry": {
        "type": "Point",
        "coordinates": [
          -59.61552659307539,
          0.752477238772113
        ]
      }
    },
    {
      "type": "Feature",
      "properties": {
        "norad_id": 34760,
        "name": "COSMOS 2251 DEB",
        "group": "cosmos-2251-debris",
        "lat": 16.45912431563429,
        "lon": 118.26352352907973,
        "alt_km": 895.0576494718262,
        "timestamp": "2025-12-12T07:43:20.910911+00:00",
        "meta_object_name": "COSMOS 2251 DEB",
        "meta_object_id": "1993-036AAE",
        "meta_epoch": "2025-12-11T20:57:04.029120",
        "meta_mean_motion": 14.19565488,
        "meta_eccentricity": 0.00967412,
        "meta_inclination": 74.0637,
        "meta_ra_of_asc_node": 303.9064,
        "meta_arg_of_pericenter": 356.2172,
        "meta_mean_anomaly": 33.6085,
        "meta_ephemeris_type": 0,
        "meta_classification_type": "U",
        "meta_norad_cat_id": 34760,
        "meta_element_set_no": 999,
        "meta_rev_at_epoch": 86676,
        "meta_bstar": 0.0010971402,
        "meta_mean_motion_dot": 2.4e-05,
        "meta_mean_motion_ddot": 0,
        "tle_line1": "1 34760U 93036AAE 25345.87296330  .00002400  00000+0  10971-2 0  9993",
        "tle_line2": "2 34760  74.0637 303.9064 0096741 356.2172  33.6085 14.19565488866766"
      },
      "geometry": {
        "type": "Point",
        "coordinates": [
          118.26352352907973,
          16.45912431563429
        ]
      }
    }
  ]
}